OSCAR 7 (AO-7)          
1 07530U 74089B   19233.23960045 -.00000033  00000-0  75182-4 0  9994
2 07530 101.7494 200.2628 0011759 223.6866 250.8746 12.53639341 48482
UOSAT 2 (UO-11)         
1 14781U 84021B   19232.85026303  .00000032  00000-0  10000-4 0  9990
2 14781  97.6083 254.5719 0009963 109.2892 250.9401 14.83101037908126
LUSAT (LO-19)           
1 20442U 90005G   19233.42118380 -.00000012  00000-0  12083-4 0  9993
2 20442  98.6513 175.3249 0011157 326.8670  33.1814 14.32930915545500
ITAMSAT (IO-26)         
1 22826U 93061D   19233.15639162 -.00000009  00000-0  14284-4 0  9993
2 22826  98.9013 223.2369 0009283 156.3134 203.8476 14.30398382351228
RADIO ROSTO (RS-15)     
1 23439U 94085A   19233.19582889 -.00000049  00000-0 -17860-3 0  9995
2 23439  64.8198  13.4281 0145939 100.9212 260.8170 11.27568618 15212
JAS-2 (FO-29)           
1 24278U 96046B   19233.21691151 -.00000016  00000-0  17359-4 0  9999
2 24278  98.5465  18.0288 0351324  75.3647 288.6166 13.53092762136396
TECHSAT 1B (GO-32)      
1 25397U 98043D   19233.36424683 -.00000018  00000-0  11325-4 0  9990
2 25397  98.6909 172.7457 0001109 155.6841 204.4390 14.23669159 96938
ISS (ZARYA)             
1 25544U 98067A   19234.03562681  .00001535  00000-0  34466-4 0  9991
2 25544  51.6237  34.6549 0009008 292.3472 162.1217 15.50400192185475
PCSAT (NO-44)           
1 26931U 01043C   19233.19247836 -.00000027  00000-0  21460-4 0  9994
2 26931  67.0502 199.8161 0007475 274.0289  85.9957 14.30549772934059
SAUDISAT 1C (SO-50)     
1 27607U 02058C   19233.39026792 -.00000060  00000-0  12539-4 0  9994
2 27607  64.5535 214.8447 0078724 244.2668 115.0294 14.75565588896438
CUTE-1 (CO-55)          
1 27844U 03031E   19233.53443966  .00000022  00000-0  29393-4 0  9994
2 27844  98.6845 240.7938 0009323 199.8952 160.1864 14.22190297837360
CUBESAT XI-IV (CO-57)   
1 27848U 03031J   19233.47439330  .00000009  00000-0  24036-4 0  9995
2 27848  98.6921 241.2482 0008995 212.3660 147.6967 14.21784041837202
MOZHAYETS 4 (RS-22)     
1 27939U 03042A   19233.69444751  .00000055  00000-0  18489-4 0  9991
2 27939  98.0500   8.2942 0012174 219.7480 140.2834 14.66797392849923
CUBESAT XI-V            
1 28895U 05043F   19232.88006023  .00000080  00000-0  24180-4 0  9995
2 28895  97.9680  13.4758 0017594 148.4220 211.8042 14.63683196736728
CUTE-1.7+APD II (CO-65) 
1 32785U 08021C   19233.82427675  .00000101  00000-0  16455-4 0  9992
2 32785  97.5519 230.5209 0014394  54.4627 305.7931 14.88332504613223
DELFI-C3 (DO-64)        
1 32789U 08021G   19233.09516263  .00000814  00000-0  58283-4 0  9993
2 32789  97.4595 280.8336 0010552 267.8185  92.1834 15.07054448616514
SEEDS II (CO-66)        
1 32791U 08021J   19233.80177950  .00000129  00000-0  18468-4 0  9991
2 32791  97.5294 236.5358 0014178  30.7319 329.4727 14.90852473613665
YUBILEINY (RS-30)       
1 32953U 08025A   19233.70974012  .00000020  00000-0  75656-4 0  9990
2 32953  82.4999 104.9576 0019459 352.3309   7.7468 12.43090819510263
KKS-1 (KISEKI)          
1 33499U 09002H   19233.21893583  .00000032  00000-0  12757-4 0  9997
2 33499  98.3471  73.9416 0009433  12.6081 347.5361 14.75455718568598
SWISSCUBE               
1 35932U 09051B   19233.01407568  .00000072  00000-0  27408-4 0  9990
2 35932  98.5944  40.8613 0007087 340.2981  19.7941 14.56301242525993
BEESAT-1                
1 35933U 09051C   19233.15062847  .00000063  00000-0  25214-4 0  9996
2 35933  98.5966  42.7882 0005592 356.6874   3.4285 14.56388395526129
ITUPSAT1                
1 35935U 09051E   19233.45115998  .00000035  00000-0  19197-4 0  9999
2 35935  98.6076  43.3311 0007788 349.4008  10.7023 14.55546001525912
XIWANG-1 (HOPE-1)       
1 36122U 09072B   19232.74359745 -.00000025  00000-0  45989-4 0  9990
2 36122 100.0742 232.1653 0006762 202.2100 157.8717 13.16350809465175
JUGNU                   
1 37839U 11058B   19232.54223663  .00000306  00000-0  21086-4 0  9993
2 37839  19.9618 313.6474 0018823 300.4559 182.6803 14.12655920406151
SRMSAT                  
1 37841U 11058D   19232.75556755  .00000287  00000-0  12682-4 0  9990
2 37841  19.9734  10.4300 0011793 169.2587 330.3300 14.10636523405603
M-CUBED & EXP-1 PRIME   
1 37855U 11061F   19233.73340946  .00000407  00000-0  28667-4 0  9995
2 37855 101.7100 162.2016 0173026 246.9410 111.3478 15.05540401426410
STRAND-1                
1 39090U 13009E   19233.51218054  .00000006  00000-0  17359-4 0  9993
2 39090  98.4835  78.3837 0010363  97.9620 262.2742 14.35093644339540
SOMP                    
1 39134U 13015E   19233.17161870  .00000711  00000-0  41696-4 0  9998
2 39134  64.8631 174.7589 0034377 293.6126  66.1393 15.20258290350240
BEESAT-3                
1 39135U 13015F   19233.27247928  .00000513  00000-0  35177-4 0  9996
2 39135  64.8687 193.6300 0029957 306.8786  52.9595 15.17549757349893
BEESAT-2                
1 39136U 13015G   19233.33358921  .00000409  00000-0  30565-4 0  9990
2 39136  64.8675 197.4383 0022404 303.7729  56.1263 15.16965551349821
ZACUBE-1 (TSHEPISOSAT)  
1 39417U 13066B   19233.74973288  .00000104  00000-0  19436-4 0  9998
2 39417  97.5623 243.6518 0058853 182.4531 177.6403 14.81136552310525
GOMX-1                  
1 39430U 13066Q   19233.80355007  .00000092  00000-0  25406-4 0  9993
2 39430  97.7517 186.1504 0152363  52.3935 309.0988 14.59271641305958
CUBEBUG-2 (LO-74)       
1 39440U 13066AA  19233.82036297  .00000096  00000-0  20570-4 0  9994
2 39440  97.6050 228.4804 0078873 236.0890 123.2803 14.75874776309432
FUNCUBE-1 (AO-73)       
1 39444U 13066AE  19232.83711415  .00000133  00000-0  22713-4 0  9993
2 39444  97.5601 244.7970 0058068 178.9978 181.1363 14.81959295309281
UWE-3                   
1 39446U 13066AG  19233.57938217  .00000098  00000-0  19739-4 0  9992
2 39446  97.5827 235.3449 0069154 210.4974 149.2209 14.78409415308706
SPROUT                  
1 39770U 14029E   19233.74387114  .00000550  00000-0  66965-4 0  9991
2 39770  97.8879 336.6334 0007867 230.3932 129.6612 14.87393093284350
UNISAT-6                
1 40012U 14033C   19232.94389843  .00000104  00000-0  23076-4 0  9990
2 40012  97.7495  96.8052 0056852 253.5284 105.9673 14.73996412278009
DUCHIFAT-1              
1 40021U 14033M   19233.78393765  .00000132  00000-0  19326-4 0  9995
2 40021  97.9226 158.5892 0012299 192.4985 167.5930 14.90661715281094
QB50P1                  
1 40025U 14033R   19233.40813894  .00000136  00000-0  20420-4 0  9999
2 40025  97.9033 152.9860 0011684 204.0407 156.0266 14.88967318280801
NUDT-PHONESAT           
1 40900U 15049B   19233.70887877  .00001048  00000-0  47617-4 0  9994
2 40900  97.4371 242.4175 0011856 327.9565 124.6100 15.22942426217404
ZDPS 2A                 
1 40901U 15049C   19233.69761566  .00000372  00000-0  21716-4 0  9990
2 40901  97.4597 238.5976 0013225 347.7765 125.1586 15.17788914216940
ZDPS 2B                 
1 40902U 15049D   19233.91459753  .00000722  00000-0  39179-4 0  9999
2 40902  97.4550 236.2611 0013030 344.6169  54.7780 15.17628453216954
XW-2A                   
1 40903U 15049E   19233.82821731  .00000938  00000-0  23986-4 0  9997
2 40903  97.3322 276.9416 0011684 273.6587 159.2182 15.42001133220133
KAITUO 1A               
1 40904U 15049F   19233.78675414  .00000362  00000-0  22621-4 0  9994
2 40904  97.4678 234.7013 0014461 352.6259 112.9588 15.15400738216702
2015-049G               
1 40905U 15049G   19233.78020292  .00000134  00000-0  10891-4 0  9996
2 40905  97.4722 232.1807 0015437 346.9436 117.8604 15.14322283216578
XW-2C                   
1 40906U 15049H   19233.71106443  .00000103  00000-0  88877-5 0  9999
2 40906  97.4688 234.7326 0014387 344.0270 135.8488 15.15719087216698
XW-2D                   
1 40907U 15049J   19233.74355258  .00000438  00000-0  26311-4 0  9998
2 40907  97.4666 234.4455 0013615 341.1912 121.5113 15.15912672216714
LILACSAT-2              
1 40908U 15049K   19233.78033539 -.00000002  00000-0  35237-5 0  9994
2 40908  97.4809 233.2502 0015513 347.2106 121.4371 15.13828495216504
XW-2F                   
1 40910U 15049M   19233.70812447  .00000401  00000-0  23430-4 0  9995
2 40910  97.4631 236.4955 0013985 333.2512 115.6842 15.17368212216726
XW-2B                   
1 40911U 15049N   19233.77962416  .00000225  00000-0  15249-4 0  9998
2 40911  97.4684 235.1393 0013400 342.0204 123.1490 15.15840914216618
KAITUO 1B               
1 40912U 15049P   19233.77668632  .00000471  00000-0  25251-4 0  9999
2 40912  97.4499 240.3010 0013569 313.3092 153.7100 15.19689477217043
TIANWANG 1C (TW-1C)     
1 40926U 15051B   19233.70036722  .00007108  00000-0  10079-3 0  9994
2 40926  97.1295 279.8163 0009758 128.7826 350.8291 15.56709979220117
TIANWANG 1A (TW-1A)     
1 40928U 15051D   19233.78112100  .00001653  00000-0  41968-4 0  9990
2 40928  97.1417 263.6639 0010711 191.0739 245.4659 15.41036581219044
LAPAN-A2                
1 40931U 15052B   19233.65009413  .00000577  00000-0 -87778-5 0  9998
2 40931   6.0012 320.5861 0013043 342.1760  17.8049 14.76610178210730
E-ST@R-II               
1 41459U 16025D   19233.81012312  .00001004  00000-0  54996-4 0  9995
2 41459  98.1016 323.5426 0168565 142.5930 218.7172 15.05556059182190
AAUSAT 4                
1 41460U 16025E   19233.77163212  .00001589  00000-0  82643-4 0  9996
2 41460  98.0972 324.9055 0158485 134.8696 226.5514 15.07493747182326
NUSAT-1 (FRESCO)        
1 41557U 16033B   19233.79414757  .00000713  00000-0  29341-4 0  9991
2 41557  97.4172 320.9231 0015424  73.9558 286.3379 15.27312696179879
BEESAT-4                
1 41619U 16040W   19233.17301460  .00000751  00000-0  34631-4 0  9996
2 41619  97.3627 294.2015 0012100 152.9770 207.2099 15.23230898163522
CAS-2T & KS-1Q          
1 41847U 16066G   19233.69431592 -.00000013  00000-0  80409-5 0  9991
2 41847  98.7007 275.4223 0366623  44.6703 318.3406 14.38000073146194
NAYIF-1 (EO-88)         
1 42017U 17008BX  19233.71422230  .00000807  00000-0  34563-4 0  9999
2 42017  97.3988 300.1380 0004843 315.0214  45.0632 15.25643766139682
MAX VALIER SAT          
1 42778U 17036P   19233.16792127  .00000494  00000-0  24574-4 0  9991
2 42778  97.3493 289.4209 0012475   9.9742 350.1739 15.22089822119894
RADFXSAT (FOX-1B)       
1 43017U 17073E   19233.34681716  .00000297  00000-0  29238-4 0  9993
2 43017  97.7208 152.2144 0256982 311.4088  46.5288 14.78606461 94667
FOX-1D (AO-92)          
1 43137U 18004AC  19232.74833877  .00000560  00000-0  26414-4 0  9997
2 43137  97.4833 300.3985 0010356  43.4910 316.7141 15.23539788 89098
ES'HAIL 2               
1 43700U 18090A   19233.78161682  .00000142  00000-0  00000+0 0  9995
2 43700   0.0141 117.2995 0001674  55.9603 103.7207  1.00273100  2930
FOX-1CLIFF (AO-95)      
1 43770U 18099N   19233.76532298  .00000106  00000-0  15015-4 0  9991
2 43770  97.7416 304.8050 0016051 117.7142 242.5709 14.94795440 38998
ITASAT 1                
1 43786U 18099AE  19233.16395533  .00000150  00000-0  18874-4 0  9996
2 43786  97.7431 304.4117 0016725 114.3037 245.9932 14.95162497 38914
JY1SAT (JO-97)          
1 43803U 18099AX  19233.74534274  .00000588  00000-0  58502-4 0  9994
2 43803  97.7388 304.8883 0016756 113.6350 246.6632 14.95297063 38994
PSAT2 (NO-104)          
1 44354U 19036R   19233.17973044  .00009230  00000-0  14148-3 0  9997
2 44354  28.5317 190.7706 0386549 347.1707  11.9280 14.97762548  8510
BRICSAT2 (NO-103)       
1 44355U 19036S   19233.17318994  .00016083  00000-0  25061-3 0  9995
2 44355  28.5322 190.7220 0384198 347.2761  11.8359 14.98261080  8519
JAISAT-1                
1 44419U 19038F   19233.47819809  .00000375  00000-0  25307-4 0  9993
2 44419  97.4939 194.5534 0023599  88.1286 272.2647 15.12279757  7101
